NORAD_CAT_ID,OBJECT_NAME,OBJECT_TYPE,EPOCH,MEAN_MOTION,ECCENTRICITY,INCLINATION,RA_OF_ASC_NODE,ARG_OF_PERICENTER,MEAN_ANOMALY,BSTAR,MEAN_MOTION_DOT,MEAN_MOTION_DDOT,TLE_LINE0,TLE_LINE1,TLE_LINE2,SEMIMAJOR_AXIS,PERIOD,APOGEE,PERIGEE,DECAYED
53402.0,STARLINK-4499,PAYLOAD,2024-02-11 20:55:17,15.08842736,0.0001811,53.2163,281.6071,124.987,235.1293,3.8823e-05,3.3e-06,0.0,0 STARLINK-4499,1 53402U 22097Q   24042.87172656  .00000330  00000-0  38823-4 0  9992,2 53402  53.2163 281.6071 0001811 124.9870 235.1293 15.08842736 83777,6917.872,95.437,540.99,538.484,0.0
53402.0,STARLINK-4499,PAYLOAD,2024-02-11 22:30:40,15.08842854,0.0001536,53.2172,281.3131,101.9264,258.1901,5.4767e-05,5.84e-06,0.0,0 STARLINK-4499,1 53402U 22097Q   24042.93796772  .00000584  00000-0  54767-4 0  9996,2 53402  53.2172 281.3131 0001536 101.9264 258.1901 15.08842854 84275,6917.872,95.437,540.799,538.674,0.0
53402.0,STARLINK-4499,PAYLOAD,2024-02-12 19:10:41,15.08838309,0.0001584,53.2172,277.4465,111.3377,248.7784,-1.3428e-05,-5.02e-06,0.0,0 STARLINK-4499,1 53402U 22097Q   24043.79909334 -.00000502  00000-0 -13428-4 0  9992,2 53402  53.2172 277.4465 0001584 111.3377 248.7784 15.08838309 83918,6917.886,95.438,540.846,538.655,0.0
53402.0,STARLINK-4499,PAYLOAD,2024-02-12 22:21:28,15.08836642,0.0001363,53.2175,276.8534,98.8111,261.3035,-3.0487e-05,-7.73e-06,0.0,0 STARLINK-4499,1 53402U 22097Q   24043.93157483 -.00000773  00000-0 -30487-4 0  9992,2 53402  53.2175 276.8534 0001363  98.8111 261.3035 15.08836642 84426,6917.891,95.438,540.699,538.813,0.0
53402.0,STARLINK-4499,PAYLOAD,2024-02-13 07:53:46,15.08839614,0.0001474,53.2171,275.0693,113.1767,246.938,-4.2575e-05,-9.65e-06,0.0,0 STARLINK-4499,1 53402U 22097Q   24044.32901384 -.00000965  00000-0 -42575-4 0  9997,2 53402  53.2171 275.0693 0001474 113.1767 246.9380 15.08839614 84480,6917.882,95.438,540.766,538.727,0.0
53402.0,STARLINK-4499,PAYLOAD,2024-02-13 22:12:15,15.08839415,0.0001551,53.2175,272.3944,108.9493,251.1667,5.1248e-05,5.28e-06,0.0,0 STARLINK-4499,1 53402U 22097Q   24044.92517423  .00000528  00000-0  51248-4 0  9990,2 53402  53.2175 272.3944 0001551 108.9493 251.1667 15.08839415 84572,6917.882,95.438,540.82,538.674,0.0
53402.0,STARLINK-4499,PAYLOAD,2024-02-14 01:23:01,15.088436,0.000146,53.2176,271.7973,104.6449,255.4705,7.5096e-05,9.08e-06,0.0,0 STARLINK-4499,1 53402U 22097Q   24045.05765092  .00000908  00000-0  75096-4 0  9991,2 53402  53.2176 271.7973 0001460 104.6449 255.4705 15.08843600 84101,6917.869,95.437,540.744,538.724,0.0
53402.0,STARLINK-4499,PAYLOAD,2024-02-14 07:44:33,15.08841645,0.0001352,53.2168,270.6067,91.0491,269.0656,1.7264e-05,-1.3e-07,0.0,0 STARLINK-4499,1 53402U 22097Q   24045.32261316 -.00000013  00000-0  17264-4 0  9992,2 53402  53.2168 270.6067 0001352  91.0491 269.0656 15.08841645 84631,6917.875,95.437,540.676,538.805,0.0
53402.0,STARLINK-4499,PAYLOAD,2024-02-14 22:03:02,15.08836221,0.0001263,53.2166,267.9298,97.139,262.9746,7.6482e-05,9.29e-06,0.0,0 STARLINK-4499,1 53402U 22097Q   24045.91877721  .00000929  00000-0  76482-4 0  9992,2 53402  53.2166 267.9298 0001263  97.1390 262.9746 15.08836221 84726,6917.892,95.438,540.631,538.883,0.0
53402.0,STARLINK-4499,PAYLOAD,2024-02-14 23:38:25,15.08836982,0.0001329,53.2168,267.6323,103.6348,256.4792,8.6754e-05,1.093e-05,0.0,0 STARLINK-4499,1 53402U 22097Q   24045.98501634  .00001093  00000-0  86754-4 0  9992,2 53402  53.2168 267.6323 0001329 103.6348 256.4792 15.08836982 84243,6917.89,95.438,540.674,538.835,0.0
53402.0,STARLINK-4499,PAYLOAD,2024-02-15 07:35:21,15.08836174,0.0001278,53.2166,266.1453,85.5848,274.529,5.1968e-05,5.39e-06,0.0,0 STARLINK-4499,1 53402U 22097Q   24046.31621882  .00000539  00000-0  51968-4 0  9991,2 53402  53.2166 266.1453 0001278  85.5848 274.5290 15.08836174 84781,6917.892,95.438,540.641,538.873,0.0
53402.0,STARLINK-4499,PAYLOAD,2024-02-15 21:53:49,15.08838872,0.0001311,53.2157,263.4686,83.0398,277.0743,3.3474e-05,2.45e-06,0.0,0 STARLINK-4499,1 53402U 22097Q   24046.91237998  .00000245  00000-0  33474-4 0  9994,2 53402  53.2157 263.4686 0001311  83.0398 277.0743 15.08838872 84878,6917.884,95.438,540.656,538.842,0.0
53402.0,STARLINK-4499,PAYLOAD,2024-02-15 23:29:12,15.08841078,0.0001351,53.216,263.1718,86.1527,273.962,5.2003e-05,5.4e-06,0.0,0 STARLINK-4499,1 53402U 22097Q   24046.97861784  .00000540  00000-0  52003-4 0  9993,2 53402  53.2160 263.1718 0001351  86.1527 273.9620 15.08841078 84889,6917.877,95.437,540.677,538.807,0.0
53402.0,STARLINK-4499,PAYLOAD,2024-02-16 20:09:12,15.08849761,0.0001349,53.2158,259.3064,81.3179,278.7966,7.0613e-05,8.36e-06,0.0,0 STARLINK-4499,1 53402U 22097Q   24047.83973112  .00000836  00000-0  70613-4 0  9993,2 53402  53.2158 259.3064 0001349  81.3179 278.7966 15.08849761 84528,6917.851,95.437,540.649,538.782,0.0
53402.0,STARLINK-4499,PAYLOAD,2024-02-16 21:44:35,15.08851147,0.0001371,53.2162,259.0093,77.8154,282.2992,8.7199e-05,1.101e-05,0.0,0 STARLINK-4499,1 53402U 22097Q   24047.90596972  .00001101  00000-0  87199-4 0  9999,2 53402  53.2162 259.0093 0001371  77.8154 282.2992 15.08851147 85026,6917.846,95.437,540.66,538.763,0.0
53402.0,STARLINK-4499,PAYLOAD,2024-02-17 07:16:54,15.08844667,0.0001207,53.2152,257.2238,87.514,272.599,2.4364e-05,1e-06,0.0,0 STARLINK-4499,1 53402U 22097Q   24048.30341341  .00000100  00000-0  24364-4 0  9995,2 53402  53.2152 257.2238 0001207  87.5140 272.5990 15.08844667 84597,6917.866,95.437,540.566,538.896,0.0
53402.0,STARLINK-4499,PAYLOAD,2024-02-17 20:00:00,15.08834644,0.000122,53.2157,254.843,98.2133,261.8998,5.3313e-05,5.61e-06,0.0,0 STARLINK-4499,1 53402U 22097Q   24048.83333942  .00000561  00000-0  53313-4 0  9998,2 53402  53.2157 254.8430 0001220  98.2133 261.8998 15.08834644 84677,6917.897,95.438,540.606,538.918,0.0
53402.0,STARLINK-4499,PAYLOAD,2024-02-18 07:07:42,15.08841613,0.000138,53.2159,252.7624,98.5286,261.5863,2.7945e-05,1.57e-06,0.0,0 STARLINK-4499,1 53402U 22097Q   24049.29701604  .00000157  00000-0  27945-4 0  9996,2 53402  53.2159 252.7624 0001380  98.5286 261.5863 15.08841613 84740,6917.875,95.437,540.695,538.786,0.0
53402.0,STARLINK-4499,PAYLOAD,2024-02-18 19:50:46,15.0885029,0.0001288,53.2159,250.3846,98.7686,261.3452,-8.7005e-06,-4.26e-06,0.0,0 STARLINK-4499,1 53402U 22097Q   24049.82693005 -.00000426  00000-0 -87005-5 0  9995,2 53402  53.2159 250.3846 0001288  98.7686 261.3452 15.08850290 85310,6917.849,95.437,540.605,538.823,0.0
53402.0,STARLINK-4499,PAYLOAD,2024-02-19 19:41:34,15.08834252,0.0001272,53.2161,245.9235,99.4643,260.6493,6.1017e-05,6.83e-06,0.0,0 STARLINK-4499,1 53402U 22097Q   24050.82053850  .00000683  00000-0  61017-4 0  9992,2 53402  53.2161 245.9235 0001272  99.4643 260.6493 15.08834252 84977,6917.898,95.438,540.643,538.883,0.0
53402.0,STARLINK-4499,PAYLOAD,2024-02-19 22:52:20,15.08837581,0.0001242,53.2159,245.3281,98.6023,261.511,4.045e-05,3.56e-06,0.0,0 STARLINK-4499,1 53402U 22097Q   24050.95301652  .00000356  00000-0  40450-4 0  9997,2 53402  53.2159 245.3281 0001242  98.6023 261.5110 15.08837581 85480,6917.888,95.438,540.612,538.894,0.0
53402.0,STARLINK-4499,PAYLOAD,2024-02-20 19:32:21,15.08837064,0.0001239,53.2165,241.4654,93.7053,266.4081,3.4099e-05,2.55e-06,0.0,0 STARLINK-4499,1 53402U 22097Q   24051.81413981  .00000255  00000-0  34099-4 0  9992,2 53402  53.2165 241.4654 0001239  93.7053 266.4081 15.08837064 85615,6917.889,95.438,540.611,538.897,0.0
53402.0,STARLINK-4499,PAYLOAD,2024-02-21 05:04:40,15.08841842,0.00013,53.2165,239.6809,96.4064,263.7076,-1.1591e-05,-4.72e-06,0.0,0 STARLINK-4499,1 53402U 22097Q   24052.21157814 -.00000472  00000-0 -11591-4 0  9992,2 53402  53.2165 239.6809 0001300  96.4064 263.7076 15.08841842 85182,6917.875,95.437,540.639,538.84,0.0
53402.0,STARLINK-4499,PAYLOAD,2024-02-21 13:01:36,15.0883515,0.000128,53.2165,238.192,92.6409,267.4729,4.9506e-05,5e-06,0.0,0 STARLINK-4499,1 53402U 22097Q   24052.54278149  .00000500  00000-0  49506-4 0  9990,2 53402  53.2165 238.1920 0001280  92.6409 267.4729 15.08835150 85729,6917.895,95.438,540.646,538.875,0.0
53402.0,STARLINK-4499,PAYLOAD,2024-02-21 19:23:08,15.08838085,0.0001331,53.2168,237.0048,99.083,261.0312,8.4059e-05,1.05e-05,0.0,0 STARLINK-4499,1 53402U 22097Q   24052.80773936  .00001050  00000-0  84059-4 0  9996,2 53402  53.2168 237.0048 0001331  99.0830 261.0312 15.08838085 85769,6917.886,95.438,540.672,538.83,0.0
53402.0,STARLINK-4499,PAYLOAD,2024-02-22 11:17:00,15.08835796,0.0001358,53.217,234.031,96.2802,263.8344,9.5394e-05,1.23e-05,0.0,0 STARLINK-4499,1 53402U 22097Q   24053.47014160  .00001230  00000-0  95394-4 0  9991,2 53402  53.2170 234.0310 0001358  96.2802 263.8344 15.08835796 85376,6917.893,95.438,540.698,538.819,0.0
53402.0,STARLINK-4499,PAYLOAD,2024-02-22 19:13:55,15.08838867,0.0001348,53.217,232.5439,95.1728,264.9418,5.017e-05,5.11e-06,0.0,0 STARLINK-4499,1 53402U 22097Q   24053.80134187  .00000511  00000-0  50170-4 0  9994,2 53402  53.2170 232.5439 0001348  95.1728 264.9418 15.08838867 85911,6917.884,95.438,540.681,538.816,0.0
53402.0,STARLINK-4499,PAYLOAD,2024-02-23 04:46:14,15.08839302,0.0001353,53.2172,230.7595,91.8276,268.2872,5.0559e-05,5.17e-06,0.0,0 STARLINK-4499,1 53402U 22097Q   24054.19878194  .00000517  00000-0  50559-4 0  9997,2 53402  53.2172 230.7595 0001353  91.8276 268.2872 15.08839302 85975,6917.883,95.438,540.684,538.812,0.0
53402.0,STARLINK-4499,PAYLOAD,2024-02-23 20:40:05,15.08844231,0.0001344,53.2167,227.7854,87.2514,272.8632,5.6503e-05,6.12e-06,0.0,0 STARLINK-4499,1 53402U 22097Q   24054.86117844  .00000612  00000-0  56503-4 0  9990,2 53402  53.2167 227.7854 0001344  87.2514 272.8632 15.08844231 85586,6917.867,95.437,540.662,538.803,0.0
53402.0,STARLINK-4499,PAYLOAD,2024-02-24 10:58:34,15.088313,0.000134,53.2162,225.1077,87.4553,272.6592,0.00016253,2.299e-05,0.0,0 STARLINK-4499,1 53402U 22097Q   24055.45734376  .00002299  00000-0  16253-3 0  9991,2 53402  53.2162 225.1077 0001340  87.4553 272.6592 15.08831300 85677,6917.907,95.438,540.699,538.845,0.0
